[{"OBJECT_NAME":"YUNHAI-2 01B","OBJECT_ID":"2018-112B","EPOCH":"2026-03-09T18:01:16.468320","MEAN_MOTION":14.28967374,"ECCENTRICITY":0.00050306,"INCLINATION":50.0104,"RA_OF_ASC_NODE":169.9221,"ARG_OF_PERICENTER":231.5656,"MEAN_ANOMALY":128.4808,"EPHEMERIS_TYPE":0,"CLASSIFICATION_TYPE":"U","NORAD_CAT_ID":43910,"ELEMENT_SET_NO":999,"REV_AT_EPOCH":37602,"BSTAR":7.0397417e-5,"MEAN_MOTION_DOT":1.8e-7,"MEAN_MOTION_DDOT":0},{"OBJECT_NAME":"SL-8 DEB","OBJECT_ID":"1986-086C","EPOCH":"2026-03-09T14:56:05.340192","MEAN_MOTION":14.25361476,"ECCENTRICITY":0.0027391,"INCLINATION":82.9168,"RA_OF_ASC_NODE":210.3964,"ARG_OF_PERICENTER":242.0155,"MEAN_ANOMALY":248.9553,"EPHEMERIS_TYPE":0,"CLASSIFICATION_TYPE":"U","NORAD_CAT_ID":18552,"ELEMENT_SET_NO":999,"REV_AT_EPOCH":883,"BSTAR":0.0017986,"MEAN_MOTION_DOT":4.271e-5,"MEAN_MOTION_DDOT":0}]
